RADCAL                  
1 22698U 93041A   08218.21635406  .00000013  00000-0  56486-6 0  1159
2 22698  89.5159  44.1838 0087250 269.2307  89.8883 14.22798389784348
STRV 1A                 
1 23125U 94034B   08219.17898153  .00000262  00000-0  12803-3 0  2355
2 23125   7.3390 260.2392 6853801 312.3111   7.1367  2.82636383130496
STRV 1B                 
1 23126U 94034C   08219.22944528  .00001900  00000-0  32401-3 0  2604
2 23126   7.0389 210.4590 6814981  49.9914 352.3182  2.89702288132496
HELIOS 1A               
1 23605U 95033A   08219.81827318  .00000024  00000-0  13555-4 0  2794
2 23605  98.1277 154.9647 0001354  13.5281 346.5969 14.63843753699180
REX 2                   
1 23814U 96014A   08219.53308802  .00000052  00000-0  18136-4 0  4509
2 23814  90.1554 266.6129 0020043 262.7335  97.1587 14.23846203644771
COSMOS 2346             
1 24953U 97052A   08219.45104950  .00000004  00000-0 -10551-4 0  2268
2 24953  82.9203 191.2776 0038655 297.8117  61.9124 13.79432056547238
ARGOS                   
1 25634U 99008A   08219.11226019  .00000207  00000-0  12144-3 0  4919
2 25634  99.0489 244.2953 0010860 121.7252 238.5004 14.18896078489369
HELIOS 1B               
1 25977U 99064A   08219.55501502 -.00000028  00000-0  37208-5 0  4396
2 25977  98.3192 203.6338 0000525 209.5573 150.5623 14.77607088465467
MTI                     
1 26102U 00014A   08219.79660069 -.00000239  00000-0 -10514-4 0  7639
2 26102  97.1948  35.8355 0021130 118.8461  11.0886 15.11534767461900
STRV 1C                 
1 26610U 00072C   08213.60282924  .00000349  00000-0  00000+0 0  8119
2 26610   7.2000  23.5334 7340237 224.8942  45.5379  2.03462522 57295
OFEQ 5                  
1 27434U 02025A   08219.88565100  .00000884  00000-0  28674-4 0  3504
2 27434 143.4630 200.4060 0027758 293.7924  65.9912 15.05252965345903
HELIOS-2A               
1 28492U 04049A   08219.78315924  .00000064  00000-0  21211-4 0   926
2 28492  98.1315 154.9511 0000833  55.1041 305.0251 14.63823328194145
ESSAIM-1                
1 28494U 04049C   08219.80958681  .00000037  00000-0  14590-4 0  1488
2 28494  98.2077 169.8571 0003633 133.4635 226.6892 14.70165075194891
ESSAIM-2                
1 28495U 04049D   08219.80914799  .00000077  00000-0  21203-4 0  1877
2 28495  98.2084 169.9387 0004628 133.0659 227.0946 14.70163286194890
ESSAIM-3                
1 28496U 04049E   08219.80977653  .00000065  00000-0  19317-4 0  1157
2 28496  98.2202 173.7485 0009331 154.1156 206.0526 14.70163730195073
ESSAIM-4                
1 28497U 04049F   08219.80931395  .00000120  00000-0  28439-4 0  1709
2 28497  98.2208 173.7811 0012594 152.4795 207.7089 14.70164184195074
SAR-LUPE 1              
1 29658U 06060A   08219.78722572  .00000367  00000-0  17349-4 0  8456
2 29658  98.1113 286.1734 0021588 270.8063 225.4700 15.26481307 90967
MIDSTAR-1               
1 30773U 07006B   08219.11949403 -.00000304  00000-0  00000+0 0  4053
2 30773  46.0282 236.1959 0012408 285.9762  73.9818 15.23541108 78688
CFESAT                  
1 30777U 07006F   08218.43486173  .00000194  00000-0  17436-4 0  3759
2 30777  35.4323 217.1987 0003499  32.7530 327.3402 15.02543626 77533
NFIRE                   
1 31140U 07014A   08219.82435878  .00003564  00000-0  37533-4 0  5412
2 31140  48.2281 103.3973 0084005 213.7917 145.7660 15.63101764 73170
OFEQ 7                  
1 31601U 07025A   08219.83980272  .00001225  00000-0  34247-4 0  3329
2 31601 141.7513  18.1377 0072136 196.8570 271.9936 15.18728717 64607
SAR-LUPE 2              
1 31797U 07030A   08219.97991443  .00000350  00000-0  16758-4 0  2434
2 31797  98.2007 352.8192 0014919 214.0635 295.8598 15.26478043 61216
SAR-LUPE 3              
1 32283U 07053A   08219.86203704  .00000237  00000-0  12416-4 0  8734
2 32283  98.1582  56.7361 0012007 334.1986 212.5778 15.26459891 42700
SAR-LUPE 4              
1 32750U 08014A   08219.84102257  .00000433  00000-0  19795-4 0  4135
2 32750  98.1495 286.7749 0025400  79.6023  55.1615 15.26484658 20156
